1 38771U 12049A   13283.28309943  .00000078  00000-0  55385-4 0  3176
2 38771  98.6900 341.9562 0002228 176.1309 183.9886 14.21499839 55060
1 38771U 12049A   13286.16900668  .00000074  00000-0  53948-4 0  3198
2 38771  98.6895 344.7974 0002381 169.6308 190.4919 14.21500504 55474
1 38771U 12049A   13287.36560171  .00000099  00000-0  65265-4 0  3206
2 38771  98.6892 345.9754 0002446 166.5480 193.5763 14.21500607 55643
1 38771U 12049A   13288.77336050  .00000125  00000-0  77004-4 0  3214
2 38771  98.6887 347.3612 0002514 164.4095 195.7160 14.21501112 55840
1 38771U 12049A   13290.67383430  .00000096  00000-0  63647-4 0  3226
2 38771  98.6881 349.2320 0002593 161.0314 199.0961 14.21502222 56115
1 38771U 12049A   13291.72965221  .00000102  00000-0  66594-4 0  3230
2 38771  98.6880 350.2712 0002612 159.2991 200.8293 14.21502427 56265
1 38771U 12049A   13292.78547000  .00000124  00000-0  76807-4 0  3241
2 38771  98.6878 351.3105 0002680 156.6457 203.4842 14.21502621 56415
1 38771U 12049A   13294.12283937  .00000106  00000-0  68338-4 0  3258
2 38771  98.6877 352.6267 0002723 153.7891 206.3425 14.21503206 56605
1 38771U 12049A   13295.38982027  .00000096  00000-0  63742-4 0  3266
2 38771  98.6878 353.8737 0002765 151.6841 208.4487 14.21503772 56787
1 38771U 12049A   13296.79757603  .00000092  00000-0  61967-4 0  3276
2 38771  98.6878 355.2592 0002801 149.4428 210.6913 14.21504181 56985
1 38771U 12049A   13298.27571907  .00000131  00000-0  79574-4 0  3280
2 38771  98.6878 356.7140 0002801 147.4135 212.7215 14.21504211 57199
1 38771U 12049A   13299.75386217  .00000101  00000-0  66136-4 0  3290
2 38771  98.6876 358.1688 0002883 143.7666 216.3707 14.21504994 57406
1 38771U 12049A   13301.16161688  .00000127  00000-0  77836-4 0  3301
2 38771  98.6873 359.5545 0002920 140.4118 219.7273 14.21505431 57602
1 38771U 12049A   13302.21743235  .00000212  00000-0  11678-3 0  3319
2 38771  98.6869   0.5937 0002954 137.8896 222.2508 14.21505266 57757
1 38771U 12049A   13303.27324798  .00000179  00000-0  10184-3 0  3329
2 38771  98.6866   1.6328 0002982 136.0303 224.1112 14.21505821 57901
1 38771U 12049A   13304.75138945  .00000191  00000-0  10723-3 0  3334
2 38771  98.6862   3.0875 0003001 133.3029 226.8399 14.21507036 58118
1 38771U 12049A   13305.80720384  .00000160  00000-0  93013-4 0  3346
2 38771  98.6860   4.1264 0003038 131.0238 229.1202 14.21507381 58265
1 38771U 12049A   13307.14456847  .00000155  00000-0  90867-4 0  3354
2 38771  98.6857   5.4423 0003072 128.4530 231.6924 14.21507801 58452
1 38771U 12049A   13308.27077008  .00000142  00000-0  84685-4 0  3365
2 38771  98.6856   6.5505 0003113 126.2360 233.9106 14.21508185 58618
1 38771U 12049A   13309.39697137  .00000112  00000-0  71205-4 0  3372
2 38771  98.6856   7.6585 0003108 124.2015 235.9457 14.21508830 58772
1 38771U 12049A   13309.81930486  .00000105  00000-0  68249-4 0  3383
2 38771  98.7185   8.0781 0003217 118.7813 241.3687 14.21463710 58836
1 38771U 12049A   13311.15670835  .00000011  00000-0  25142-4 0  3394
2 38771  98.7180   9.3990 0003282 114.2178 245.9342 14.21465492 59023
1 38771U 12049A   13312.28294234  .00000029  00000-0  33318-4 0  3409
2 38771  98.7179  10.5112 0003286 111.8518 248.3009 14.21465602 59183
1 38771U 12049A   13313.69073472  .00000101  00000-0  66145-4 0  3410
2 38771  98.7178  11.9015 0003273 109.4184 250.7347 14.21466525 59386
1 38771U 12049A   13314.81696789  .00000099  00000-0  65146-4 0  3424
2 38771  98.7176  13.0137 0003285 107.2597 252.8940 14.21467062 59546
1 38771U 12049A   13316.15436911  .00000147  00000-0  87466-4 0  3436
2 38771  98.7173  14.3345 0003254 104.5431 255.6107 14.21467853 59736
1 38771U 12049A   13316.29514805  .00000161  00000-0  93844-4 0  3444
2 38771  98.7172  14.4735 0003249 104.2703 255.8835 14.21467812 59759
1 38771U 12049A   13317.35099074  .00000143  00000-0  85474-4 0  3459
2 38771  98.7169  15.5162 0003266 102.2394 257.9149 14.21468174 59904
1 38771U 12049A   13318.26605438  .00000182  00000-0  10317-3 0  3464
2 38771  98.7166  16.4198 0003250 100.5348 259.6196 14.21468605 60039
1 38771U 12049A   13319.67384408  .00000160  00000-0  93395-4 0  3476
2 38771  98.7162  17.8099 0003198  97.7865 262.3676 14.21469595 60237
1 38771U 12049A   13320.72968545  .00000232  00000-0  12617-3 0  3482
2 38771  98.7160  18.8524 0003182  95.5596 264.5944 14.21470512 60388
1 38771U 12049A   13321.78552619  .00000175  00000-0  10010-3 0  3492
2 38771  98.7158  19.8949 0003154  93.6426 266.5112 14.21471188 60533
1 38771U 12049A   13323.12292395  .00000254  00000-0  13602-3 0  3504
2 38771  98.7157  21.2153 0003108  90.9514 269.2019 14.21471682 60729
1 38771U 12049A   13324.17876406  .00000202  00000-0  11241-3 0  3512
2 38771  98.7157  22.2577 0003086  89.0239 271.1292 14.21472388 60873
1 38771U 12049A   13325.51616035  .00000197  00000-0  10997-3 0  3522
2 38771  98.7157  23.5779 0003062  86.7125 273.4402 14.21472834 61069
1 38771U 12049A   13326.71277779  .00000194  00000-0  10864-3 0  3534
2 38771  98.7157  24.7593 0003049  84.3808 275.7717 14.21473203 61237
1 38771U 12049A   13328.12056282  .00000168  00000-0  97034-4 0  3542
2 38771  98.7155  26.1493 0003039  81.8604 278.2918 14.21473798 61437
1 38771U 12049A   13329.17640114  .00000164  00000-0  94875-4 0  3558
2 38771  98.7154  27.1917 0003004  79.6811 280.4705 14.21474162 61586
1 38771U 12049A   13330.23223885  .00000115  00000-0  72515-4 0  3563
2 38771  98.7152  28.2341 0002963  77.3120 282.8388 14.21474280 61739
1 38771U 12049A   13331.28807636  .00000151  00000-0  88970-4 0  3574
2 38771  98.7149  29.2765 0002917  74.9994 285.1506 14.21474344 61882
1 38771U 12049A   13332.76624918  .00000142  00000-0  84774-4 0  3587
2 38771  98.7145  30.7359 0002835  71.4458 288.7027 14.21474742 62093
1 38771U 12049A   13334.17403259  .00000133  00000-0  81061-4 0  3594
2 38771  98.7141  32.1257 0002804  68.6302 291.5174 14.21475532 62299
1 38771U 12049A   13335.79298223  .00000147  00000-0  87412-4 0  3609
2 38771  98.7138  33.7238 0002761  65.4784 294.6681 14.21476153 62525
1 38771U 12049A   13337.27115337  .00000109  00000-0  69805-4 0  3613
2 38771  98.7137  35.1829 0002699  62.3541 297.7910 14.21476684 62734
1 38771U 12049A   13338.81971302  .00000082  00000-0  57408-4 0  3623
2 38771  98.7136  36.7114 0002636  59.0264 301.1172 14.21477504 62959
1 38771U 12049A   13340.22749350  .00000104  00000-0  67734-4 0  3636
2 38771  98.7136  38.1010 0002560  55.2767 304.8651 14.21478012 63152
1 38771U 12049A   13340.22749350  .00000104  00000-0  67734-4 0  3647
2 38771  98.7136  38.1010 0002560  55.2767 304.8651 14.21478012 63152
1 38771U 12049A   13341.28332837  .00000142  00000-0  84950-4 0  3654
2 38771  98.7136  39.1431 0002501  52.5969 307.5436 14.21478293 63308
1 38771U 12049A   13342.76149723  .00000147  00000-0  87394-4 0  3669
2 38771  98.7135  40.6022 0002427  49.1315 311.0072 14.21479266 63514
1 38771U 12049A   13343.81733162  .00000125  00000-0  77160-4 0  3679
2 38771  98.7133  41.6444 0002385  47.3126 312.8252 14.21479841 63668
1 38771U 12049A   13345.15472085  .00000160  00000-0  93363-4 0  3685
2 38771  98.7129  42.9646 0002313  44.1856 315.9505 14.21480112 63856
1 38771U 12049A   13346.28094310  .00000200  00000-0  11127-3 0  3694
2 38771  98.7126  44.0763 0002243  40.8993 319.2352 14.21480713 64016
1 38771U 12049A   13347.75910975  .00000197  00000-0  11015-3 0  3704
2 38771  98.7121  45.5353 0002170  37.4252 322.7076 14.21481853 64222
1 38771U 12049A   13348.81494228  .00000174  00000-0  99625-4 0  3710
2 38771  98.7118  46.5774 0002121  34.9741 325.1576 14.21482610 64377
1 38771U 12049A   13350.15232897  .00000165  00000-0  95414-4 0  3725
2 38771  98.7115  47.8973 0002054  31.3473 328.7826 14.21483075 64561
1 38771U 12049A   13351.27854906  .00000165  00000-0  95239-4 0  3736
2 38771  98.7114  49.0088 0001996  28.4455 331.6831 14.21483551 64728
1 38771U 12049A   13352.75671263  .00000139  00000-0  83558-4 0  3746
2 38771  98.7113  50.4675 0001917  24.1913 335.9354 14.21484505 64930
1 38771U 12049A   13354.02371807  .00000269  00000-0  12293-3 0    28
2 38771  98.7122  51.7174 0002180  18.7696 341.4045 14.21484888 65123
1 38771U 12049A   13354.16448648  .00000114  00000-0  72192-4 0  3758
2 38771  98.7112  51.8567 0001841  20.6882 339.4369 14.21485198 65133
1 38771U 12049A   13355.50187076  .00000109  00000-0  69828-4 0  3769
2 38771  98.7112  53.1765 0001769  16.5615 343.5620 14.21485456 65329
1 38771U 12049A   13356.62808907  .00000124  00000-0  76820-4 0  3774
2 38771  98.7111  54.2879 0001707  12.2370 347.8849 14.21485692 65488
1 38771U 12049A   13357.75430719  .00000091  00000-0  61660-4 0  3781
2 38771  98.7109  55.3992 0001636   9.5017 350.6191 14.21486257 65649
1 38771U 12049A   13359.23246763  .00000096  00000-0  63954-4 0  3794
2 38771  98.7107  56.8579 0001573   3.7225 356.3963 14.21486423 65859
1 38771U 12049A   13360.28829623  .00000115  00000-0  72684-4 0  3807
2 38771  98.7104  57.8999 0001518   0.3422 359.7756 14.21486664 66006
1 38771U 12049A   13361.76645639  .00000110  00000-0  70150-4 0  3816
2 38771  98.7100  59.3586 0001453 354.1329   5.9831 14.21487049 66210
1 38771U 12049A   13363.17422779  .00000091  00000-0  61723-4 0  3826
2 38771  98.7096  60.7477 0001382 348.8760  11.2387 14.21487589 66416
1 38771U 12049A   13364.23005582  .00000089  00000-0  60750-4 0  3830
2 38771  98.7093  61.7894 0001333 344.6888  15.4249 14.21487880 66561
1 38771U 12049A   13364.44122177  .00000254  00000-0  11625-3 0    21
2 38771  98.7112  61.9939 0001981 331.2526  28.9183 14.21489566 66609
1 38771U 12049A   13365.63782624  .00000102  00000-0  66856-4 0  3844
2 38771  98.7090  63.1784 0001276 338.6652  21.4471 14.21488425 66762
1 38771U 12049A   14001.76404241  .00000095  00000-0  63522-4 0  3851
2 38771  98.7089  64.2895 0001209 334.2300  25.8817 14.21489233 66921
